{"type": "FeatureCollection", "features": [ {"type": "Feature", "properties": {"norad_id": 37437, "name": "FENGYUN 1C DEB", "group": "fengyun-1c-debris", "lat": 67.03776878532665, "lon": -172.6294844295643, "alt_km": 815.8936216880847, "timestamp": "2025-12-20T20:38:44.732023+00:00", "meta": {"OBJECT_NAME": "FENGYUN 1C DEB", "OBJECT_ID": "1999-025EHF", "EPOCH": "2025-12-17T18:29:44.922048", "MEAN_MOTION": 14.18865115, "ECCENTRICITY": 0.01130155, "INCLINATION": 98.5858, "RA_OF_ASC_NODE": 343.4882, "ARG_OF_PERICENTER": 34.3362, "MEAN_ANOMALY": 143.2771, "EPHEMERIS_TYPE": 0, "CLASSIFICATION_TYPE": "U", "NORAD_CAT_ID": 37437, "ELEMENT_SET_NO": 999, "REV_AT_EPOCH": 64062, "BSTAR": 0.00044498448, "MEAN_MOTION_DOT": 9.45e-06, "MEAN_MOTION_DDOT": 0}, "tle": {"line1": "1 37437U 99025EHF 25351.77065882  .00000945  00000+0  44498-3 0  9997", "line2": "2 37437  98.5858 343.4882 0113015  34.3362 143.2771 14.18865115640626"}}, "geometry": {"type": "Point", "coordinates": [-172.6294844295643, 67.03776878532665]}}, {"type": "Feature", "properties": {"norad_id": 37438, "name": "FENGYUN 1C DEB", "group": "fengyun-1c-debris", "lat": 30.867633709386666, "lon": 28.413425446981037, "alt_km": 859.2550903658112, "timestamp": "2025-12-20T20:38:44.732034+00:00", "meta": {"OBJECT_NAME": "FENGYUN 1C DEB", "OBJECT_ID": "1999-025EHG", "EPOCH": "2025-12-17T22:56:38.488128", "MEAN_MOTION": 14.1553014, "ECCENTRICITY": 0.0029006, "INCLINATION": 98.7424, "RA_OF_ASC_NODE": 30.8431, "ARG_OF_PERICENTER": 207.8952, "MEAN_ANOMALY": 152.0668, "EPHEMERIS_TYPE": 0, "CLASSIFICATION_TYPE": "U", "NORAD_CAT_ID": 37438, "ELEMENT_SET_NO": 999, "REV_AT_EPOCH": 60209, "BSTAR": 0.00055037209, "MEAN_MOTION_DOT": 1.037e-05, "MEAN_MOTION_DDOT": 0}, "tle": {"line1": "1 37438U 99025EHG 25351.95600102  .00001037  00000+0  55037-3 0  9992", "line2": "2 37438  98.7424  30.8431 0029006 207.8952 152.0668 14.15530140602099"}}, "geometry": {"type": "Point", "coordinates": [28.413425446981037, 30.867633709386666]}}, {"type": "Feature", "properties": {"norad_id": 37441, "name": "FENGYUN 1C DEB", "group": "fengyun-1c-debris", "lat": -80.57582530450067, "lon": -55.42150409311796, "alt_km": 1437.5923341468451, "timestamp": "2025-12-20T20:38:44.732045+00:00", "meta": {"OBJECT_NAME": "FENGYUN 1C DEB", "OBJECT_ID": "1999-025EHK", "EPOCH": "2025-12-17T20:01:38.582976", "MEAN_MOTION": 13.14238619, "ECCENTRICITY": 0.05087058, "INCLINATION": 99.1461, "RA_OF_ASC_NODE": 198.0132, "ARG_OF_PERICENTER": 42.6804, "MEAN_ANOMALY": 321.2685, "EPHEMERIS_TYPE": 0, "CLASSIFICATION_TYPE": "U", "NORAD_CAT_ID": 37441, "ELEMENT_SET_NO": 999, "REV_AT_EPOCH": 82239, "BSTAR": 0.0017432108, "MEAN_MOTION_DOT": 1.206e-05, "MEAN_MOTION_DDOT": 0}, "tle": {"line1": "1 37441U 99025EHK 25351.83447434  .00001206  00000+0  17432-2 0  9994", "line2": "2 37441  99.1461 198.0132 0508705  42.6804 321.2685 13.14238619822393"}}, "geometry": {"type": "Point", "coordinates": [-55.42150409311796, -80.57582530450067]}}, {"type": "Feature", "properties": {"norad_id": 37444, "name": "FENGYUN 1C DEB", "group": "fengyun-1c-debris", "lat": 48.20893055013079, "lon": 65.68409821254207, "alt_km": 706.2024825992485, "timestamp": "2025-12-20T20:38:44.732055+00:00", "meta": {"OBJECT_NAME": "FENGYUN 1C DEB", "OBJECT_ID": "1999-025EHN", "EPOCH": "2025-12-20T12:08:03.005376", "MEAN_MOTION": 14.48074147, "ECCENTRICITY": 0.02444689, "INCLINATION": 99.0826, "RA_OF_ASC_NODE": 75.6126, "ARG_OF_PERICENTER": 325.8336, "MEAN_ANOMALY": 32.7325, "EPHEMERIS_TYPE": 0, "CLASSIFICATION_TYPE": "U", "NORAD_CAT_ID": 37444, "ELEMENT_SET_NO": 999, "REV_AT_EPOCH": 65263, "BSTAR": 0.00037419966, "MEAN_MOTION_DOT": 1.964e-05, "MEAN_MOTION_DDOT": 0}, "tle": {"line1": "1 37444U 99025EHN 25354.50559034  .00001964  00000+0  37420-3 0  9995", "line2": "2 37444  99.0826  75.6126 0244468 325.8336  32.7325 14.48074147652637"}}, "geometry": {"type": "Point", "coordinates": [65.68409821254207, 48.20893055013079]}}, {"type": "Feature", "properties": {"norad_id": 37448, "name": "FENGYUN 1C DEB", "group": "fengyun-1c-debris", "lat": -60.538968846644615, "lon": 76.35622879684223, "alt_km": 973.3387653552272, "timestamp": "2025-12-20T20:38:44.732065+00:00", "meta": {"OBJECT_NAME": "FENGYUN 1C DEB", "OBJECT_ID": "1999-025EHS", "EPOCH": "2025-12-17T09:50:38.631840", "MEAN_MOTION": 13.87103686, "ECCENTRICITY": 0.03062777, "INCLINATION": 99.3197, "RA_OF_ASC_NODE": 56.012, "ARG_OF_PERICENTER": 46.1638, "MEAN_ANOMALY": 316.4401, "EPHEMERIS_TYPE": 0, "CLASSIFICATION_TYPE": "U", "NORAD_CAT_ID": 37448, "ELEMENT_SET_NO": 999, "REV_AT_EPOCH": 62440, "BSTAR": 0.0010911098, "MEAN_MOTION_DOT": 1.811e-05, "MEAN_MOTION_DDOT": 0}, "tle": {"line1": "1 37448U 99025EHS 25351.41016935  .00001811  00000+0  10911-2 0  9990", "line2": "2 37448  99.3197  56.0120 0306277  46.1638 316.4401 13.87103686624401"}}, "geometry": {"type": "Point", "coordinates": [76.35622879684223, -60.538968846644615]}}, {"type": "Feature", "properties": {"norad_id": 37460, "name": "FENGYUN 1C DEB", "group": "fengyun-1c-debris", "lat": -13.469268113698954, "lon": -11.360103505823984, "alt_km": 723.8650830871729, "timestamp": "2025-12-20T20:38:44.732075+00:00", "meta": {"OBJECT_NAME": "FENGYUN 1C DEB", "OBJECT_ID": "1999-025EJE", "EPOCH": "2025-12-08T10:53:05.307360", "MEAN_MOTION": 14.47840336, "ECCENTRICITY": 0.00565903, "INCLINATION": 98.3779, "RA_OF_ASC_NODE": 158.3686, "ARG_OF_PERICENTER": 303.3518, "MEAN_ANOMALY": 56.2265, "EPHEMERIS_TYPE": 0, "CLASSIFICATION_TYPE": "U", "NORAD_CAT_ID": 37460, "ELEMENT_SET_NO": 999, "REV_AT_EPOCH": 82427, "BSTAR": 0.0027403859, "MEAN_MOTION_DOT": 0.00010316, "MEAN_MOTION_DDOT": 0}, "tle": {"line1": "1 37460U 99025EJE 25342.45353365  .00010316  00000+0  27404-2 0  9994", "line2": "2 37460  98.3779 158.3686 0056590 303.3518  56.2265 14.47840336824279"}}, "geometry": {"type": "Point", "coordinates": [-11.360103505823984, -13.469268113698954]}}, {"type": "Feature", "properties": {"norad_id": 37461, "name": "FENGYUN 1C DEB", "group": "fengyun-1c-debris", "lat": 46.522205347087976, "lon": -128.48750994392853, "alt_km": 1378.261506274901, "timestamp": "2025-12-20T20:38:44.732085+00:00", "meta": {"OBJECT_NAME": "FENGYUN 1C DEB", "OBJECT_ID": "1999-025EJF", "EPOCH": "2025-11-27T22:25:56.122176", "MEAN_MOTION": 12.7907076, "ECCENTRICITY": 0.0667413, "INCLINATION": 99.8664, "RA_OF_ASC_NODE": 221.8984, "ARG_OF_PERICENTER": 359.7811, "MEAN_ANOMALY": 0.291, "EPHEMERIS_TYPE": 0, "CLASSIFICATION_TYPE": "U", "NORAD_CAT_ID": 37461, "ELEMENT_SET_NO": 999, "REV_AT_EPOCH": 51845, "BSTAR": 0.0053613, "MEAN_MOTION_DOT": 3.048e-05, "MEAN_MOTION_DDOT": 0}, "tle": {"line1": "1 37461U 99025EJF 25331.93467734  .00003048  00000+0  53613-2 0  9997", "line2": "2 37461  99.8664 221.8984 0667413 359.7811   0.2910 12.79070760518454"}}, "geometry": {"type": "Point", "coordinates": [-128.48750994392853, 46.522205347087976]}}, {"type": "Feature", "properties": {"norad_id": 37464, "name": "FENGYUN 1C DEB", "group": "fengyun-1c-debris", "lat": -36.13676957661099, "lon": -69.38599889434253, "alt_km": 1327.5310801980631, "timestamp": "2025-12-20T20:38:44.732096+00:00", "meta": {"OBJECT_NAME": "FENGYUN 1C DEB", "OBJECT_ID": "1999-025EJJ", "EPOCH": "2025-12-17T01:55:22.822464", "MEAN_MOTION": 13.46929018, "ECCENTRICITY": 0.04535861, "INCLINATION": 102.7053, "RA_OF_ASC_NODE": 276.3358, "ARG_OF_PERICENTER": 107.6712, "MEAN_ANOMALY": 257.4457, "EPHEMERIS_TYPE": 0, "CLASSIFICATION_TYPE": "U", "NORAD_CAT_ID": 37464, "ELEMENT_SET_NO": 999, "REV_AT_EPOCH": 60980, "BSTAR": 0.0027782336, "MEAN_MOTION_DOT": 3.098e-05, "MEAN_MOTION_DDOT": 0}, "tle": {"line1": "1 37464U 99025EJJ 25351.08012526  .00003098  00000+0  27782-2 0  9996", "line2": "2 37464 102.7053 276.3358 0453586 107.6712 257.4457 13.46929018609803"}}, "geometry": {"type": "Point", "coordinates": [-69.38599889434253, -36.13676957661099]}}, {"type": "Feature", "properties": {"norad_id": 37470, "name": "FENGYUN 1C DEB", "group": "fengyun-1c-debris", "lat": 16.7522296967863, "lon": -38.14928549048457, "alt_km": 560.7081552577001, "timestamp": "2025-12-20T20:38:44.732106+00:00", "meta": {"OBJECT_NAME": "FENGYUN 1C DEB", "OBJECT_ID": "1999-025EJQ", "EPOCH": "2025-12-18T08:46:22.753632", "MEAN_MOTION": 15.02026596, "ECCENTRICITY": 7.634e-05, "INCLINATION": 98.6685, "RA_OF_ASC_NODE": 136.4328, "ARG_OF_PERICENTER": 312.8238, "MEAN_ANOMALY": 47.2919, "EPHEMERIS_TYPE": 0, "CLASSIFICATION_TYPE": "U", "NORAD_CAT_ID": 37470, "ELEMENT_SET_NO": 999, "REV_AT_EPOCH": 65546, "BSTAR": 0.0049334475, "MEAN_MOTION_DOT": 0.00065198, "MEAN_MOTION_DDOT": 0}, "tle": {"line1": "1 37470U 99025EJQ 25352.36554113  .00065198  00000+0  49334-2 0  9994", "line2": "2 37470  98.6685 136.4328 0000763 312.8238  47.2919 15.02026596655469"}}, "geometry": {"type": "Point", "coordinates": [-38.14928549048457, 16.7522296967863]}}, {"type": "Feature", "properties": {"norad_id": 37474, "name": "FENGYUN 1C DEB", "group": "fengyun-1c-debris", "lat": 50.102407632824765, "lon": -170.0489559480656, "alt_km": 590.668396467001, "timestamp": "2025-12-20T20:38:44.732116+00:00", "meta": {"OBJECT_NAME": "FENGYUN 1C DEB", "OBJECT_ID": "1999-025EJU", "EPOCH": "2025-12-17T07:46:09.276672", "MEAN_MOTION": 14.7520815, "ECCENTRICITY": 0.01320065, "INCLINATION": 99.1653, "RA_OF_ASC_NODE": 197.0828, "ARG_OF_PERICENTER": 120.7322, "MEAN_ANOMALY": 240.6963, "EPHEMERIS_TYPE": 0, "CLASSIFICATION_TYPE": "U", "NORAD_CAT_ID": 37474, "ELEMENT_SET_NO": 999, "REV_AT_EPOCH": 62443, "BSTAR": 0.00094441555, "MEAN_MOTION_DOT": 7.29e-05, "MEAN_MOTION_DDOT": 0}, "tle": {"line1": "1 37474U 99025EJU 25351.32371848  .00007290  00000+0  94442-3 0  9995", "line2": "2 37474  99.1653 197.0828 0132006 120.7322 240.6963 14.75208150624436"}}, "geometry": {"type": "Point", "coordinates": [-170.0489559480656, 50.102407632824765]}}]}